{
    "links": {
        "self": "http://www.neowsapp.com/rest/v1/neo/3843829?api_key=iIulBulltgU6a56xZRHN4H3l9WmuAYTsLGpBGhQ2"
    },
    "id": "3843829",
    "neo_reference_id": "3843829",
    "name": "(2019 RS2)",
    "designation": "2019 RS2",
    "nasa_jpl_url": "http://ssd.jpl.nasa.gov/sbdb.cgi?sstr=3843829",
    "absolute_magnitude_h": 22.4,
    "estimated_diameter": {
        "kilometers": {
            "estimated_diameter_min": 0.0880146521,
            "estimated_diameter_max": 0.1968067451
        },
        "meters": {
            "estimated_diameter_min": 88.0146520901,
            "estimated_diameter_max": 196.8067450894
        },
        "miles": {
            "estimated_diameter_min": 0.0546897524,
            "estimated_diameter_max": 0.122290004
        },
        "feet": {
            "estimated_diameter_min": 288.7619911632,
            "estimated_diameter_max": 645.6914415591
        }
    },
    "is_potentially_hazardous_asteroid": false,
    "close_approach_data": [
        {
            "close_approach_date": "2019-09-04",
            "close_approach_date_full": "2019-Sep-04 13:06",
            "epoch_date_close_approach": 1567602360000,
            "relative_velocity": {
                "kilometers_per_second": "11.2228057514",
                "kilometers_per_hour": "40402.1007050029",
                "miles_per_hour": "25104.2941852836"
            },
            "miss_distance": {
                "astronomical": "0.1918793438",
                "lunar": "74.6410647382",
                "kilometers": "28704741.129477706",
                "miles": "17836299.0576801028"
            },
            "orbiting_body": "Earth"
        }
    ],
    "orbital_data": {
        "orbit_id": "4",
        "orbit_determination_date": "2019-11-01 08:12:12",
        "first_observation_date": "2019-09-06",
        "last_observation_date": "2019-10-18",
        "data_arc_in_days": 42,
        "observations_used": 31,
        "orbit_uncertainty": "7",
        "minimum_orbit_intersection": ".161164",
        "jupiter_tisserand_invariant": "3.329",
        "epoch_osculation": "2459000.5",
        "eccentricity": ".5124296824994538",
        "semi_major_axis": "2.342768493386812",
        "inclination": "15.92604699755426",
        "ascending_node_longitude": "335.5518981691483",
        "orbital_period": "1309.762310473938",
        "perihelion_distance": "1.142264378150884",
        "perihelion_argument": "27.12865009962417",
        "aphelion_distance": "3.54327260862274",
        "perihelion_time": "2458746.412417107121",
        "mean_anomaly": "69.83826692061197",
        "mean_motion": ".2748590313838959",
        "equinox": "J2000",
        "orbit_class": {
            "orbit_class_type": "AMO",
            "orbit_class_description": "Near-Earth asteroid orbits similar to that of 1221 Amor",
            "orbit_class_range": "1.017 AU < q (perihelion) < 1.3 AU"
        }
    },
    "is_sentry_object": false
}